1 25544U 98067A   21248.93187500  .00002682  00000-0  57585-4 0  9992
2 25544  51.6460 303.4549 0003254 359.2159 348.7019 15.48603023301109
1 25544U 98067A   21249.21036244  .00002648  00000-0  56950-4 0  9999
2 25544  51.6455 302.0779 0003228   0.5429 100.9589 15.48604541301151
1 25544U 98067A   21249.46949571  .00002601  00000-0  56085-4 0  9990
2 25544  51.6451 300.7969 0003220   1.5252 105.5886 15.48605595301195
1 25544U 98067A   21249.54028389  .00002593  00000-0  55940-4 0  9993
2 25544  51.6453 300.4471 0003214   1.7468 140.2698 15.48606005301202
1 25544U 98067A   21249.66978994  .00002619  00000-0  56413-4 0  9997
2 25544  51.6454 299.8068 0003230   2.3078 142.1799 15.48606957301229
1 25544U 98067A   21249.97676126  .00002569  00000-0  55501-4 0  9994
2 25544  51.6454 298.2897 0003244   3.7159  53.2605 15.48608535301279
1 25544U 98067A   21250.90152766  .00001679  00000-0  39124-4 0  9992
2 25544  51.6451 293.7182 0003257   6.8638 169.0604 15.48608631301411
1 25544U 98067A   21251.20584034  .00001439  00000-0  34722-4 0  9996
2 25544  51.6449 292.2135 0003334   7.5279  66.0524 15.48608753301462
1 25544U 98067A   21251.34072397  .00001336  00000-0  32813-4 0  9990
2 25544  51.6450 291.5466 0003326   8.0690  97.9802 15.48608682301482
1 25544U 98067A   21251.54251346  .00001217  00000-0  30631-4 0  9999
2 25544  51.6448 290.5499 0003321   9.2616 142.5034 15.48608942301517
1 25544U 98067A   21251.91335566  .00001223  00000-0  30744-4 0  9999
2 25544  51.6448 288.7159 0003326  10.7494  49.8237 15.48610247301576
1 25544U 98067A   21252.04669031  .00001314  00000-0  32421-4 0  9996
2 25544  51.6449 288.0566 0003352  11.5647  72.8420 15.48611286301596
1 25544U 98067A   21252.18003037  .00001330  00000-0  32699-4 0  9994
2 25544  51.6447 287.3970 0003352  12.1752  96.0942 15.48611890301610
1 25544U 98067A   21252.50949163  .00001550  00000-0  36756-4 0  9991
2 25544  51.6444 285.7692 0003404  13.6408 132.5925 15.48614249301665
1 25544U 98067A   21252.63836869  .00001447  00000-0  34863-4 0  9995
2 25544  51.6446 285.1316 0003395  15.4356 129.7603 15.48614154301683
1 25544U 98067A   21252.94543244  .00001665  00000-0  38852-4 0  9995
2 25544  51.6445 283.6133 0003364  15.8331  42.3829 15.48616578301733
1 25544U 98067A   21253.14605495  .00001950  00000-0  44098-4 0  9991
2 25544  51.6438 282.6214 0003391  16.1545  81.2829 15.48619190301763
1 25544U 98067A   21253.21501535  .00001975  00000-0  44557-4 0  9996
2 25544  51.6438 282.2804 0003402  16.2421 105.9053 15.48619608301779
1 25544U 98067A   21253.35452546  .00002079  00000-0  46460-4 0  9999
2 25544  51.6436 281.5905 0003457  16.6931 163.7421 15.48620776301792
1 25544U 98067A   21253.54441572  .00002318  00000-0  50853-4 0  9994
2 25544  51.6438 280.6521 0003501  17.2809 142.5012 15.48622916301822
1 25544U 98067A   21253.60625238  .00002344  00000-0  51343-4 0  9998
2 25544  51.6438 280.3464 0003508  17.4570 127.2949 15.48623368301831
1 25544U 98067A   21253.91334198  .00002446  00000-0  53196-4 0  9995
2 25544  51.6438 278.8280 0003382  19.9919  37.9308 15.48625500301884
1 25544U 98067A   21254.11480803  .00001844  00000-0  42142-4 0  9993
2 25544  51.6425 277.8355 0003689  20.5925  81.2496 15.48625598301918
1 25544U 98067A   21254.18166970  .00002455  00000-0  53360-4 0  9999
2 25544  51.6437 277.5011 0003349  22.4779  92.3728 15.48627026301928
1 25544U 98067A   21254.44508609  .00002462  00000-0  53495-4 0  9994
2 25544  51.6432 276.1989 0003474  21.5641 122.8152 15.48628317301967
1 25544U 98067A   21254.57379002  .00002620  00000-0  56399-4 0  9993
2 25544  51.6436 275.5624 0003404  23.4371 118.9508 15.48629868301989
1 25544U 98067A   21254.80584491  .00002418  00000-0  52678-4 0  9990
2 25544  51.6435 274.4155 0003482  22.7882 334.1713 15.48630223302012
1 25544U 98067A   21254.88181794  .00002414  00000-0  52609-4 0  9997
2 25544  51.6434 274.0398 0003482  23.0221  37.7719 15.48630637302030
1 25544U 98067A   21255.01578781 -.00452210  00000-0 -88977-2 0  9999
2 25544  51.6432 273.3961 0001711  34.2623  53.7140 15.48312643302051
1 25544U 98067A   21255.08187065 -.00372918  00000-0 -72737-2 0  9990
2 25544  51.6379 273.0535 0002965   0.1606  96.3880 15.48262638302063
1 25544U 98067A   21255.21005818 -.00120443  00000-0 -22592-2 0  9998
2 25544  51.6451 272.4173 0002526  27.1693  64.4213 15.48396490302085
