OBJECT_NAME,OBJECT_ID,EPOCH,MEAN_MOTION,ECCENTRICITY,INCLINATION,RA_OF_ASC_NODE,ARG_OF_PERICENTER,MEAN_ANOMALY,EPHEMERIS_TYPE,CLASSIFICATION_TYPE,NORAD_CAT_ID,ELEMENT_SET_NO,REV_AT_EPOCH,BSTAR,MEAN_MOTION_DOT,MEAN_MOTION_DDOT
ISS (ZARYA),1998-067A,2021-09-05T22:21:54.000000,15.48603023,.0003254,51.6460,303.4549,359.2159,348.7019,0,U,25544,999,30110,.57585E-4,.2682E-4,0
ISS (ZARYA),1998-067A,2021-09-06T05:02:55.314816,15.48604541,.0003228,51.6455,302.0779,0.5429,100.9589,0,U,25544,999,30115,.5695E-4,.2648E-4,0
ISS (ZARYA),1998-067A,2021-09-06T11:16:04.429344,15.48605595,.000322,51.6451,300.7969,1.5252,105.5886,0,U,25544,999,30119,.56085E-4,.2601E-4,0
ISS (ZARYA),1998-067A,2021-09-06T12:58:00.528096,15.48606005,.0003214,51.6453,300.4471,1.7468,140.2698,0,U,25544,999,30120,.5594E-4,.2593E-4,0
ISS (ZARYA),1998-067A,2021-09-06T16:04:29.850816,15.48606957,.000323,51.6454,299.8068,2.3078,142.1799,0,U,25544,999,30122,.56413E-4,.2619E-4,0
ISS (ZARYA),1998-067A,2021-09-06T23:26:32.172864,15.48608535,.0003244,51.6454,298.2897,3.7159,53.2605,0,U,25544,999,30127,.55501E-4,.2569E-4,0
ISS (ZARYA),1998-067A,2021-09-07T21:38:11.989824,15.48608631,.0003257,51.6451,293.7182,6.8638,169.0604,0,U,25544,999,30141,.39124E-4,.1679E-4,0
ISS (ZARYA),1998-067A,2021-09-08T04:56:24.605376,15.48608753,.0003334,51.6449,292.2135,7.5279,66.0524,0,U,25544,999,30146,.34722E-4,.1439E-4,0
ISS (ZARYA),1998-067A,2021-09-08T08:10:38.551008,15.48608682,.0003326,51.6450,291.5466,8.0690,97.9802,0,U,25544,999,30148,.32813E-4,.1336E-4,0
ISS (ZARYA),1998-067A,2021-09-08T13:01:13.162944,15.48608942,.0003321,51.6448,290.5499,9.2616,142.5034,0,U,25544,999,30151,.30631E-4,.1217E-4,0
ISS (ZARYA),1998-067A,2021-09-08T21:55:13.929024,15.48610247,.0003326,51.6448,288.7159,10.7494,49.8237,0,U,25544,999,30157,.30744E-4,.1223E-4,0
ISS (ZARYA),1998-067A,2021-09-09T01:07:14.042784,15.48611286,.0003352,51.6449,288.0566,11.5647,72.8420,0,U,25544,999,30159,.32421E-4,.1314E-4,0
ISS (ZARYA),1998-067A,2021-09-09T04:19:14.623968,15.48611890,.0003352,51.6447,287.3970,12.1752,96.0942,0,U,25544,999,30161,.32699E-4,.133E-4,0
ISS (ZARYA),1998-067A,2021-09-09T12:13:40.076832,15.48614249,.0003404,51.6444,285.7692,13.6408,132.5925,0,U,25544,999,30166,.36756E-4,.155E-4,0
ISS (ZARYA),1998-067A,2021-09-09T15:19:15.054816,15.48614154,.0003395,51.6446,285.1316,15.4356,129.7603,0,U,25544,999,30168,.34863E-4,.1447E-4,0
ISS (ZARYA),1998-067A,2021-09-09T22:41:25.362816,15.48616578,.0003364,51.6445,283.6133,15.8331,42.3829,0,U,25544,999,30173,.38852E-4,.1665E-4,0
ISS (ZARYA),1998-067A,2021-09-10T03:30:19.147680,15.48619190,.0003391,51.6438,282.6214,16.1545,81.2829,0,U,25544,999,30176,.44098E-4,.195E-4,0
ISS (ZARYA),1998-067A,2021-09-10T05:09:37.326240,15.48619608,.0003402,51.6438,282.2804,16.2421,105.9053,0,U,25544,999,30177,.44557E-4,.1975E-4,0
ISS (ZARYA),1998-067A,2021-09-10T08:30:30.999744,15.48620776,.0003457,51.6436,281.5905,16.6931,163.7421,0,U,25544,999,30179,.4646E-4,.2079E-4,0
ISS (ZARYA),1998-067A,2021-09-10T13:03:57.518208,15.48622916,.0003501,51.6438,280.6521,17.2809,142.5012,0,U,25544,999,30182,.50853E-4,.2318E-4,0
ISS (ZARYA),1998-067A,2021-09-10T14:33:00.205632,15.48623368,.0003508,51.6438,280.3464,17.4570,127.2949,0,U,25544,999,30183,.51343E-4,.2344E-4,0
ISS (ZARYA),1998-067A,2021-09-10T21:55:12.747072,15.48625500,.0003382,51.6438,278.8280,19.9919,37.9308,0,U,25544,999,30188,.53196E-4,.2446E-4,0
ISS (ZARYA),1998-067A,2021-09-11T02:45:19.413792,15.48625598,.0003689,51.6425,277.8355,20.5925,81.2496,0,U,25544,999,30191,.42142E-4,.1844E-4,0
ISS (ZARYA),1998-067A,2021-09-11T04:21:36.262080,15.48627026,.0003349,51.6437,277.5011,22.4779,92.3728,0,U,25544,999,30192,.5336E-4,.2455E-4,0
ISS (ZARYA),1998-067A,2021-09-11T10:40:55.438176,15.48628317,.0003474,51.6432,276.1989,21.5641,122.8152,0,U,25544,999,30196,.53495E-4,.2462E-4,0
ISS (ZARYA),1998-067A,2021-09-11T13:46:15.457728,15.48629868,.0003404,51.6436,275.5624,23.4371,118.9508,0,U,25544,999,30198,.56399E-4,.262E-4,0
ISS (ZARYA),1998-067A,2021-09-11T19:20:25.000224,15.48630223,.0003482,51.6435,274.4155,22.7882,334.1713,0,U,25544,999,30201,.52678E-4,.2418E-4,0
ISS (ZARYA),1998-067A,2021-09-11T21:09:49.070016,15.48630637,.0003482,51.6434,274.0398,23.0221,37.7719,0,U,25544,999,30203,.52609E-4,.2414E-4,0
ISS (ZARYA),1998-067A,2021-09-12T00:22:44.066784,15.48312643,.0001711,51.6432,273.3961,34.2623,53.7140,0,U,25544,999,30205,-.88977E-2,-.45221E-2,0
ISS (ZARYA),1998-067A,2021-09-12T01:57:53.624160,15.48262638,.0002965,51.6379,273.0535,0.1606,96.3880,0,U,25544,999,30206,-.72737E-2,-.372918E-2,0
ISS (ZARYA),1998-067A,2021-09-12T05:02:29.026752,15.48396490,.0002526,51.6451,272.4173,27.1693,64.4213,0,U,25544,999,30208,-.22592E-2,-.120443E-2,0
